DELTA 2 R/B(1)          
1 20453U 90008B   26060.54377828  .00074143  00000+0  90457-3 0  9995
2 20453  35.6027 228.2657 0087148 183.1700 176.8491 15.54713167924864
COSMOS 2058             
1 20465U 90010A   26061.03389382  .00004695  00000+0  27743-3 0  9997
2 20465  82.4663  54.9702 0009927   8.7431 351.3970 15.11237951941080
SL-14 R/B               
1 20466U 90010B   26061.06541883  .00000462  00000+0  53053-4 0  9999
2 20466  82.4993 274.5523 0019025 328.9053  31.1034 14.83561078927351
SL-14 R/B               
1 20511U 90018B   26060.94089707  .00000600  00000+0  72281-4 0  9994
2 20511  82.5190 230.3330 0017561 115.5611 244.7421 14.82134560921437
HST                     
1 20580U 90037B   26061.17768228  .00008803  00000+0  29260-3 0  9990
2 20580  28.4700  91.2397 0001619  50.0273 310.0465 15.29341956772160
SL-16 R/B               
1 20625U 90046B   26061.13317354 -.00000151  00000+0 -53431-4 0  9994
2 20625  71.0005 313.7846 0016086 309.8191  50.1515 14.15014937847320
COSMOS 2084             
1 20663U 90055A   26061.15057646  .00003271  00000+0  23890-3 0  9992
2 20663  62.7922   1.2888 0018247 188.2856 171.7946 15.05593803935184
SL-6 R/B(2)             
1 20666U 90055D   26060.98991945  .00002225  00000+0  17583-3 0  9994
2 20666  62.7821 280.0356 0023560 345.1140  14.9263 15.03550783937030
SL-8 R/B                
1 20775U 90078B   26061.04890786  .00016560  00000+0  48637-3 0  9990
2 20775  82.8993 258.1828 0364086  39.6585 323.0658 14.88762896808168
SL-8 R/B                
1 21088U 91006B   26061.09266530  .00000043  00000+0  27992-4 0  9990
2 21088  82.9462 175.6931 0023472  58.8168 114.0349 13.77493198763020
OKEAN-3                 
1 21397U 91039A   26061.16485565  .00003637  00000+0  25568-3 0  9996
2 21397  82.5202 344.1315 0014393   4.9922 355.1445 15.04739857863902
COSMOS 2151             
1 21422U 91042A   26061.14573492  .00001985  00000+0  15692-3 0  9995
2 21422  82.4932  90.9551 0014145  86.1328 274.1513 15.00069179862066
