CCSDS_OMM_VERS = 2.0
CREATION_DATE  = 
ORIGINATOR     = 

OBJECT_NAME    = DELTA 2 R/B(1)
OBJECT_ID      = 1990-008B
CENTER_NAME    = EARTH
REF_FRAME      = TEME
TIME_SYSTEM    = UTC
MEAN_ELEMENT_THEORY = SGP/SGP4

EPOCH          = 2026-03-01T13:03:02.443392
MEAN_MOTION    = 15.54713167
ECCENTRICITY   = .0087148
INCLINATION    = 35.6027
RA_OF_ASC_NODE = 228.2657
ARG_OF_PERICENTER = 183.1700
MEAN_ANOMALY   = 176.8491

EPHEMERIS_TYPE = 0
CLASSIFICATION_TYPE = U
NORAD_CAT_ID   = 20453
ELEMENT_SET_NO = 999
REV_AT_EPOCH   = 92486
BSTAR          = .90457003E-3
MEAN_MOTION_DOT = .74143E-3
MEAN_MOTION_DDOT = 0

CCSDS_OMM_VERS = 2.0
CREATION_DATE  = 
ORIGINATOR     = 

OBJECT_NAME    = COSMOS 2058
OBJECT_ID      = 1990-010A
CENTER_NAME    = EARTH
REF_FRAME      = TEME
TIME_SYSTEM    = UTC
MEAN_ELEMENT_THEORY = SGP/SGP4

EPOCH          = 2026-03-02T00:48:48.426048
MEAN_MOTION    = 15.11237951
ECCENTRICITY   = .0009927
INCLINATION    = 82.4663
RA_OF_ASC_NODE = 54.9702
ARG_OF_PERICENTER = 8.7431
MEAN_ANOMALY   = 351.3970

EPHEMERIS_TYPE = 0
CLASSIFICATION_TYPE = U
NORAD_CAT_ID   = 20465
ELEMENT_SET_NO = 999
REV_AT_EPOCH   = 94108
BSTAR          = .27743E-3
MEAN_MOTION_DOT = .4695E-4
MEAN_MOTION_DDOT = 0

CCSDS_OMM_VERS = 2.0
CREATION_DATE  = 
ORIGINATOR     = 

OBJECT_NAME    = SL-14 R/B
OBJECT_ID      = 1990-010B
CENTER_NAME    = EARTH
REF_FRAME      = TEME
TIME_SYSTEM    = UTC
MEAN_ELEMENT_THEORY = SGP/SGP4

EPOCH          = 2026-03-02T01:34:12.186912
MEAN_MOTION    = 14.83561078
ECCENTRICITY   = .0019025
INCLINATION    = 82.4993
RA_OF_ASC_NODE = 274.5523
ARG_OF_PERICENTER = 328.9053
MEAN_ANOMALY   = 31.1034

EPHEMERIS_TYPE = 0
CLASSIFICATION_TYPE = U
NORAD_CAT_ID   = 20466
ELEMENT_SET_NO = 999
REV_AT_EPOCH   = 92735
BSTAR          = .53053E-4
MEAN_MOTION_DOT = .462E-5
MEAN_MOTION_DDOT = 0

CCSDS_OMM_VERS = 2.0
CREATION_DATE  = 
ORIGINATOR     = 

OBJECT_NAME    = SL-14 R/B
OBJECT_ID      = 1990-018B
CENTER_NAME    = EARTH
REF_FRAME      = TEME
TIME_SYSTEM    = UTC
MEAN_ELEMENT_THEORY = SGP/SGP4

EPOCH          = 2026-03-01T22:34:53.506848
MEAN_MOTION    = 14.82134560
ECCENTRICITY   = .0017561
INCLINATION    = 82.5190
RA_OF_ASC_NODE = 230.3330
ARG_OF_PERICENTER = 115.5611
MEAN_ANOMALY   = 244.7421

EPHEMERIS_TYPE = 0
CLASSIFICATION_TYPE = U
NORAD_CAT_ID   = 20511
ELEMENT_SET_NO = 999
REV_AT_EPOCH   = 92143
BSTAR          = .72281E-4
MEAN_MOTION_DOT = .6E-5
MEAN_MOTION_DDOT = 0

CCSDS_OMM_VERS = 2.0
CREATION_DATE  = 
ORIGINATOR     = 

OBJECT_NAME    = HST
OBJECT_ID      = 1990-037B
CENTER_NAME    = EARTH
REF_FRAME      = TEME
TIME_SYSTEM    = UTC
MEAN_ELEMENT_THEORY = SGP/SGP4

EPOCH          = 2026-03-02T04:15:51.748992
MEAN_MOTION    = 15.29341956
ECCENTRICITY   = .0001619
INCLINATION    = 28.4700
RA_OF_ASC_NODE = 91.2397
ARG_OF_PERICENTER = 50.0273
MEAN_ANOMALY   = 310.0465

EPHEMERIS_TYPE = 0
CLASSIFICATION_TYPE = U
NORAD_CAT_ID   = 20580
ELEMENT_SET_NO = 999
REV_AT_EPOCH   = 77216
BSTAR          = .2926E-3
MEAN_MOTION_DOT = .8803E-4
MEAN_MOTION_DDOT = 0

CCSDS_OMM_VERS = 2.0
CREATION_DATE  = 
ORIGINATOR     = 

OBJECT_NAME    = SL-16 R/B
OBJECT_ID      = 1990-046B
CENTER_NAME    = EARTH
REF_FRAME      = TEME
TIME_SYSTEM    = UTC
MEAN_ELEMENT_THEORY = SGP/SGP4

EPOCH          = 2026-03-02T03:11:46.193856
MEAN_MOTION    = 14.15014937
ECCENTRICITY   = .0016086
INCLINATION    = 71.0005
RA_OF_ASC_NODE = 313.7846
ARG_OF_PERICENTER = 309.8191
MEAN_ANOMALY   = 50.1515

EPHEMERIS_TYPE = 0
CLASSIFICATION_TYPE = U
NORAD_CAT_ID   = 20625
ELEMENT_SET_NO = 999
REV_AT_EPOCH   = 84732
BSTAR          = -.53431E-4
MEAN_MOTION_DOT = -.151E-5
MEAN_MOTION_DDOT = 0

CCSDS_OMM_VERS = 2.0
CREATION_DATE  = 
ORIGINATOR     = 

OBJECT_NAME    = COSMOS 2084
OBJECT_ID      = 1990-055A
CENTER_NAME    = EARTH
REF_FRAME      = TEME
TIME_SYSTEM    = UTC
MEAN_ELEMENT_THEORY = SGP/SGP4

EPOCH          = 2026-03-02T03:36:49.806144
MEAN_MOTION    = 15.05593803
ECCENTRICITY   = .0018247
INCLINATION    = 62.7922
RA_OF_ASC_NODE = 1.2888
ARG_OF_PERICENTER = 188.2856
MEAN_ANOMALY   = 171.7946

EPHEMERIS_TYPE = 0
CLASSIFICATION_TYPE = U
NORAD_CAT_ID   = 20663
ELEMENT_SET_NO = 999
REV_AT_EPOCH   = 93518
BSTAR          = .2389E-3
MEAN_MOTION_DOT = .3271E-4
MEAN_MOTION_DDOT = 0

CCSDS_OMM_VERS = 2.0
CREATION_DATE  = 
ORIGINATOR     = 

OBJECT_NAME    = SL-6 R/B(2)
OBJECT_ID      = 1990-055D
CENTER_NAME    = EARTH
REF_FRAME      = TEME
TIME_SYSTEM    = UTC
MEAN_ELEMENT_THEORY = SGP/SGP4

EPOCH          = 2026-03-01T23:45:29.040480
MEAN_MOTION    = 15.03550783
ECCENTRICITY   = .002356
INCLINATION    = 62.7821
RA_OF_ASC_NODE = 280.0356
ARG_OF_PERICENTER = 345.1140
MEAN_ANOMALY   = 14.9263

EPHEMERIS_TYPE = 0
CLASSIFICATION_TYPE = U
NORAD_CAT_ID   = 20666
ELEMENT_SET_NO = 999
REV_AT_EPOCH   = 93703
BSTAR          = .17583E-3
MEAN_MOTION_DOT = .2225E-4
MEAN_MOTION_DDOT = 0

CCSDS_OMM_VERS = 2.0
CREATION_DATE  = 
ORIGINATOR     = 

OBJECT_NAME    = SL-8 R/B
OBJECT_ID      = 1990-078B
CENTER_NAME    = EARTH
REF_FRAME      = TEME
TIME_SYSTEM    = UTC
MEAN_ELEMENT_THEORY = SGP/SGP4

EPOCH          = 2026-03-02T01:10:25.639104
MEAN_MOTION    = 14.88762896
ECCENTRICITY   = .0364086
INCLINATION    = 82.8993
RA_OF_ASC_NODE = 258.1828
ARG_OF_PERICENTER = 39.6585
MEAN_ANOMALY   = 323.0658

EPHEMERIS_TYPE = 0
CLASSIFICATION_TYPE = U
NORAD_CAT_ID   = 20775
ELEMENT_SET_NO = 999
REV_AT_EPOCH   = 80816
BSTAR          = .48637E-3
MEAN_MOTION_DOT = .1656E-3
MEAN_MOTION_DDOT = 0

CCSDS_OMM_VERS = 2.0
CREATION_DATE  = 
ORIGINATOR     = 

OBJECT_NAME    = SL-8 R/B
OBJECT_ID      = 1991-006B
CENTER_NAME    = EARTH
REF_FRAME      = TEME
TIME_SYSTEM    = UTC
MEAN_ELEMENT_THEORY = SGP/SGP4

EPOCH          = 2026-03-02T02:13:26.281920
MEAN_MOTION    = 13.77493198
ECCENTRICITY   = .0023472
INCLINATION    = 82.9462
RA_OF_ASC_NODE = 175.6931
ARG_OF_PERICENTER = 58.8168
MEAN_ANOMALY   = 114.0349

EPHEMERIS_TYPE = 0
CLASSIFICATION_TYPE = U
NORAD_CAT_ID   = 21088
ELEMENT_SET_NO = 999
REV_AT_EPOCH   = 76302
BSTAR          = .27992E-4
MEAN_MOTION_DOT = .43E-6
MEAN_MOTION_DDOT = 0

CCSDS_OMM_VERS = 2.0
CREATION_DATE  = 
ORIGINATOR     = 

OBJECT_NAME    = OKEAN-3
OBJECT_ID      = 1991-039A
CENTER_NAME    = EARTH
REF_FRAME      = TEME
TIME_SYSTEM    = UTC
MEAN_ELEMENT_THEORY = SGP/SGP4

EPOCH          = 2026-03-02T03:57:23.528160
MEAN_MOTION    = 15.04739857
ECCENTRICITY   = .0014393
INCLINATION    = 82.5202
RA_OF_ASC_NODE = 344.1315
ARG_OF_PERICENTER = 4.9922
MEAN_ANOMALY   = 355.1445

EPHEMERIS_TYPE = 0
CLASSIFICATION_TYPE = U
NORAD_CAT_ID   = 21397
ELEMENT_SET_NO = 999
REV_AT_EPOCH   = 86390
BSTAR          = .25568E-3
MEAN_MOTION_DOT = .3637E-4
MEAN_MOTION_DDOT = 0

CCSDS_OMM_VERS = 2.0
CREATION_DATE  = 
ORIGINATOR     = 

OBJECT_NAME    = COSMOS 2151
OBJECT_ID      = 1991-042A
CENTER_NAME    = EARTH
REF_FRAME      = TEME
TIME_SYSTEM    = UTC
MEAN_ELEMENT_THEORY = SGP/SGP4

EPOCH          = 2026-03-02T03:29:51.497088
MEAN_MOTION    = 15.00069179
ECCENTRICITY   = .0014145
INCLINATION    = 82.4932
RA_OF_ASC_NODE = 90.9551
ARG_OF_PERICENTER = 86.1328
MEAN_ANOMALY   = 274.1513

EPHEMERIS_TYPE = 0
CLASSIFICATION_TYPE = U
NORAD_CAT_ID   = 21422
ELEMENT_SET_NO = 999
REV_AT_EPOCH   = 86206
BSTAR          = .15692E-3
MEAN_MOTION_DOT = .1985E-4
MEAN_MOTION_DDOT = 0

